NORAD_CAT_ID,OBJECT_NAME,OBJECT_TYPE,EPOCH,MEAN_MOTION,ECCENTRICITY,INCLINATION,RA_OF_ASC_NODE,ARG_OF_PERICENTER,MEAN_ANOMALY,BSTAR,MEAN_MOTION_DOT,MEAN_MOTION_DDOT,TLE_LINE0,TLE_LINE1,TLE_LINE2,SEMIMAJOR_AXIS,PERIOD,APOGEE,PERIGEE,DECAYED
52853.0,STARLINK-4189,PAYLOAD,2023-09-03 00:13:45,15.08835121,0.0002135,53.2178,188.2077,97.3141,262.8094,2.6519e-05,1.34e-06,0.0,0 STARLINK-4189,1 52853U 22062Z   23246.00955027  .00000134  00000-0  26519-4 0  9995,2 52853  53.2178 188.2077 0002135  97.3141 262.8094 15.08835121 67727,6917.895,95.438,541.237,538.283,0.0
52853.0,STARLINK-4189,PAYLOAD,2023-09-03 12:56:50,15.08836284,6.02e-05,53.2174,185.8264,44.9559,315.1481,-2.1987e-05,-6.37e-06,0.0,0 STARLINK-4189,1 52853U 22062Z   23246.53947242 -.00000637  00000-0 -21987-4 0  9997,2 52853  53.2174 185.8264 0000602  44.9559 315.1481 15.08836284 67310,6917.892,95.438,540.173,539.34,0.0
52853.0,STARLINK-4189,PAYLOAD,2023-09-04 01:39:55,15.08835717,0.000158,53.2184,183.4492,93.8709,266.2464,-8.7789e-05,-1.685e-05,0.0,0 STARLINK-4189,1 52853U 22062Z   23247.06939669 -.00001685  00000-0 -87789-4 0  9996,2 52853  53.2184 183.4492 0001580  93.8709 266.2464 15.08835717 67883,6917.893,95.438,540.852,538.665,0.0
52853.0,STARLINK-4189,PAYLOAD,2023-09-04 12:47:37,15.08832564,0.0001688,53.218,181.3674,91.7618,268.3567,9.7506e-05,1.264e-05,0.0,0 STARLINK-4189,1 52853U 22062Z   23247.53307647  .00001264  00000-0  97506-4 0  9992,2 52853  53.2180 181.3674 0001688  91.7618 268.3567 15.08832564 67461,6917.903,95.438,540.936,538.6,0.0
52853.0,STARLINK-4189,PAYLOAD,2023-09-04 23:55:19,15.08841262,0.0001666,53.218,179.2853,96.0635,264.0547,0.00010957,1.456e-05,0.0,0 STARLINK-4189,1 52853U 22062Z   23247.99675214  .00001456  00000-0  10957-3 0  9997,2 52853  53.2180 179.2853 0001666  96.0635 264.0547 15.08841262 68028,6917.877,95.437,540.894,538.589,0.0
52853.0,STARLINK-4189,PAYLOAD,2023-09-05 04:41:28,15.08844824,0.0001697,53.2182,178.3933,95.3038,264.8148,0.00013785,1.907e-05,0.0,0 STARLINK-4189,1 52853U 22062Z   23248.19546960  .00001907  00000-0  13785-3 0  9998,2 52853  53.2182 178.3933 0001697  95.3038 264.8148 15.08844824 67562,6917.866,95.437,540.905,538.557,0.0
52853.0,STARLINK-4189,PAYLOAD,2023-09-06 01:21:29,15.08837297,0.0001698,53.2182,174.5261,90.3308,269.7879,0.00017111,2.436e-05,0.0,0 STARLINK-4189,1 52853U 22062Z   23249.05659491  .00002436  00000-0  17111-3 0  9993,2 52853  53.2182 174.5261 0001698  90.3308 269.7879 15.08837297 68180,6917.889,95.438,540.928,538.579,0.0
52853.0,STARLINK-4189,PAYLOAD,2023-09-06 18:50:44,15.08842765,0.0001685,53.2182,171.2547,91.1511,268.9674,7.9974e-05,9.85e-06,0.0,0 STARLINK-4189,1 52853U 22062Z   23249.78523410  .00000985  00000-0  79974-4 0  9997,2 52853  53.2182 171.2547 0001685  91.1511 268.9674 15.08842765 67800,6917.872,95.437,540.903,538.571,0.0
52853.0,STARLINK-4189,PAYLOAD,2023-09-07 01:12:16,15.08848454,0.0001668,53.2182,170.0666,93.1269,266.9914,0.00010916,1.45e-05,0.0,0 STARLINK-4189,1 52853U 22062Z   23250.05018880  .00001450  00000-0  10916-3 0  9997,2 52853  53.2182 170.0666 0001668  93.1269 266.9914 15.08848454 68337,6917.855,95.437,540.873,538.566,0.0
52853.0,STARLINK-4189,PAYLOAD,2023-09-07 18:41:31,15.0884278,8.79e-05,53.2155,166.7961,70.9988,289.1099,5.8503e-05,6.44e-06,0.0,0 STARLINK-4189,1 52853U 22062Z   23250.77883126  .00000644  00000-0  58503-4 0  9998,2 52853  53.2155 166.7961 0000879  70.9988 289.1099 15.08842780 68440,6917.872,95.437,540.345,539.129,0.0
52853.0,STARLINK-4189,PAYLOAD,2023-09-08 01:03:03,15.08849979,0.0002183,53.2167,165.6038,102.7483,257.3753,7.4741e-06,-1.69e-06,0.0,0 STARLINK-4189,1 52853U 22062Z   23251.04378710 -.00000169  00000-0  74741-5 0  9993,2 52853  53.2167 165.6038 0002183 102.7483 257.3753 15.08849979 68485,6917.85,95.437,541.225,538.205,0.0
52853.0,STARLINK-4189,PAYLOAD,2023-09-08 23:18:27,15.08843339,0.0001573,53.2179,161.4431,98.6306,261.4865,3.2353e-05,2.27e-06,0.0,0 STARLINK-4189,1 52853U 22062Z   23251.97115070  .00000227  00000-0  32353-4 0  9999,2 52853  53.2179 161.4431 0001573  98.6306 261.4865 15.08843339 68628,6917.87,95.437,540.823,538.647,0.0
52853.0,STARLINK-4189,PAYLOAD,2023-09-09 10:26:09,15.08833658,0.0001525,53.2175,159.3607,95.5022,264.6144,0.00013752,1.901e-05,0.0,0 STARLINK-4189,1 52853U 22062Z   23252.43483454  .00001901  00000-0  13752-3 0  9996,2 52853  53.2175 159.3607 0001525  95.5022 264.6144 15.08833658 68698,6917.9,95.438,540.82,538.71,0.0
52853.0,STARLINK-4189,PAYLOAD,2023-09-10 00:44:37,15.08843449,0.000138,53.2183,156.6882,106.462,253.6524,9.2337e-05,1.182e-05,0.0,0 STARLINK-4189,1 52853U 22062Z   23253.03098903  .00001182  00000-0  92337-4 0  9992,2 52853  53.2183 156.6882 0001380 106.4620 253.6524 15.08843449 68786,6917.87,95.437,540.69,538.78,0.0
52853.0,STARLINK-4189,PAYLOAD,2023-09-10 02:20:00,15.08844278,0.0001519,53.2184,156.389,99.5421,260.5743,9.2551e-05,1.185e-05,0.0,0 STARLINK-4189,1 52853U 22062Z   23253.09722891  .00001185  00000-0  92551-4 0  9999,2 52853  53.2184 156.3890 0001519  99.5421 260.5743 15.08844278 68307,6917.867,95.437,540.783,538.681,0.0
52853.0,STARLINK-4189,PAYLOAD,2023-09-10 16:38:29,15.08834387,0.0001494,53.2186,153.7142,106.1542,253.9615,4.1261e-05,3.69e-06,0.0,0 STARLINK-4189,1 52853U 22062Z   23253.69339812  .00000369  00000-0  41261-4 0  9997,2 52853  53.2186 153.7142 0001494 106.1542 253.9615 15.08834387 68888,6917.898,95.438,540.796,538.729,0.0
52853.0,STARLINK-4189,PAYLOAD,2023-09-11 00:35:25,15.08829867,0.0001334,53.2185,152.2272,99.3478,260.7665,-2.5278e-05,-6.9e-06,0.0,0 STARLINK-4189,1 52853U 22062Z   23254.02460447 -.00000690  00000-0 -25278-4 0  9993,2 52853  53.2185 152.2272 0001334  99.3478 260.7665 15.08829867 68933,6917.911,95.438,540.699,538.854,0.0
52853.0,STARLINK-4189,PAYLOAD,2023-09-11 10:07:44,15.08835268,0.0001388,53.2181,150.4416,101.7067,258.4081,5.4184e-05,5.74e-06,0.0,0 STARLINK-4189,1 52853U 22062Z   23254.42204073  .00000574  00000-0  54184-4 0  9995,2 52853  53.2181 150.4416 0001388 101.7067 258.4081 15.08835268 68994,6917.895,95.438,540.72,538.8,0.0
52853.0,STARLINK-4189,PAYLOAD,2023-09-12 02:01:34,15.08848824,0.0001297,53.2179,147.4674,98.0895,262.0245,0.00012136,1.645e-05,0.0,0 STARLINK-4189,1 52853U 22062Z   23255.08443171  .00001645  00000-0  12136-3 0  9992,2 52853  53.2179 147.4674 0001297  98.0895 262.0245 15.08848824 69096,6917.853,95.437,540.616,538.821,0.0
52853.0,STARLINK-4189,PAYLOAD,2023-09-12 21:06:12,15.0886468,0.000203,53.2192,143.9004,103.7831,256.3387,-0.00021231,-3.668e-05,0.0,0 STARLINK-4189,1 52853U 22062Z   23255.87931229 -.00003668  00000-0 -21231-3 0  9990,2 52853  53.2192 143.9004 0002030 103.7831 256.3387 15.08864680 68729,6917.805,95.436,541.074,538.266,0.0
52853.0,STARLINK-4189,PAYLOAD,2023-09-13 00:16:59,15.08846058,0.0001344,53.2176,143.3036,78.0819,282.0323,0.00016849,2.395e-05,0.0,0 STARLINK-4189,1 52853U 22062Z   23256.01179490  .00002395  00000-0  16849-3 0  9994,2 52853  53.2176 143.3036 0001344  78.0819 282.0323 15.08846058 69239,6917.862,95.437,540.657,538.797,0.0
52853.0,STARLINK-4189,PAYLOAD,2023-09-13 22:32:22,15.08850597,0.0001439,53.2177,139.1416,92.3594,267.7563,0.00010964,1.458e-05,0.0,0 STARLINK-4189,1 52853U 22062Z   23256.93915035  .00001458  00000-0  10964-3 0  9999,2 52853  53.2177 139.1416 0001439  92.3594 267.7563 15.08850597 68888,6917.848,95.437,540.708,538.718,0.0
52853.0,STARLINK-4189,PAYLOAD,2023-09-14 14:26:14,15.08841856,0.0001346,53.2174,136.1681,92.6291,267.4855,-1.5257e-05,-5.31e-06,0.0,0 STARLINK-4189,1 52853U 22062Z   23257.60155847 -.00000531  00000-0 -15257-4 0  9995,2 52853  53.2174 136.1681 0001346  92.6291 267.4855 15.08841856 69475,6917.875,95.437,540.671,538.809,0.0
52853.0,STARLINK-4189,PAYLOAD,2023-09-14 20:47:47,15.08832915,0.0001472,53.2175,134.9766,77.8151,282.3006,-0.00010327,-1.931e-05,0.0,0 STARLINK-4189,1 52853U 22062Z   23257.86652675 -.00001931  00000-0 -10327-3 0  9991,2 52853  53.2175 134.9766 0001472  77.8151 282.3006 15.08832915 69027,6917.902,95.438,540.785,538.749,0.0
52853.0,STARLINK-4189,PAYLOAD,2023-09-14 22:23:10,15.08833608,0.0001448,53.2178,134.6805,87.1745,272.9413,-9.887e-05,-1.861e-05,0.0,0 STARLINK-4189,1 52853U 22062Z   23257.93276589 -.00001861  00000-0 -98870-4 0  9997,2 52853  53.2178 134.6805 0001448  87.1745 272.9413 15.08833608 69529,6917.9,95.438,540.767,538.763,0.0
52853.0,STARLINK-4189,PAYLOAD,2023-09-15 22:13:56,15.08846175,0.0001398,53.2178,130.2208,97.4897,262.6254,0.00010756,1.425e-05,0.0,0 STARLINK-4189,1 52853U 22062Z   23258.92635119  .00001425  00000-0  10756-3 0  9995,2 52853  53.2178 130.2208 0001398  97.4897 262.6254 15.08846175 69672,6917.862,95.437,540.694,538.759,0.0
52853.0,STARLINK-4189,PAYLOAD,2023-09-16 15:43:12,15.0883213,0.0001624,53.2184,126.9475,89.8984,270.2194,0.00014676,2.048e-05,0.0,0 STARLINK-4189,1 52853U 22062Z   23259.65500039  .00002048  00000-0  14676-3 0  9995,2 52853  53.2184 126.9475 0001624  89.8984 270.2194 15.08832130 69787,6917.904,95.438,540.893,538.646,0.0
52853.0,STARLINK-4189,PAYLOAD,2023-09-16 22:04:44,15.08832979,0.0001582,53.2186,125.7633,89.8785,270.2388,0.00014228,1.977e-05,0.0,0 STARLINK-4189,1 52853U 22062Z   23259.91996192  .00001977  00000-0  14228-3 0  9996,2 52853  53.2186 125.7633 0001582  89.8785 270.2388 15.08832979 69331,6917.902,95.438,540.861,538.672,0.0
52853.0,STARLINK-4189,PAYLOAD,2023-09-17 18:44:45,15.08844487,0.0001482,53.2179,121.8964,95.7883,264.3278,-9.3783e-06,-4.37e-06,0.0,0 STARLINK-4189,1 52853U 22062Z   23260.78107996 -.00000437  00000-0 -93783-5 0  9996,2 52853  53.2179 121.8964 0001482  95.7883 264.3278 15.08844487 69958,6917.867,95.437,540.757,538.706,0.0
52853.0,STARLINK-4189,PAYLOAD,2023-09-17 23:30:54,15.08847654,0.0001465,53.2179,121.0029,92.4135,267.7025,3.8225e-05,3.21e-06,0.0,0 STARLINK-4189,1 52853U 22062Z   23260.97979640  .00000321  00000-0  38225-4 0  9999,2 52853  53.2179 121.0029 0001465  92.4135 267.7025 15.08847654 69492,6917.857,95.437,540.735,538.709,0.0
